OBJECT_NAME,OBJECT_ID,EPOCH,MEAN_MOTION,ECCENTRICITY,INCLINATION,RA_OF_ASC_NODE,ARG_OF_PERICENTER,MEAN_ANOMALY,EPHEMERIS_TYPE,CLASSIFICATION_TYPE,NORAD_CAT_ID,ELEMENT_SET_NO,REV_AT_EPOCH,BSTAR,MEAN_MOTION_DOT,MEAN_MOTION_DDOT
ONEWEB-0396,2021-132H,2026-06-04T00:58:26.995008,13.18688805,.0001929,87.9167,338.0708,88.9866,271.1487,0,U,50476,999,21990,.14522E-3,.7E-6,0
ONEWEB-0397,2021-132J,2026-06-04T01:20:18.451968,13.18687110,.0001878,87.9163,338.0680,87.0199,273.1148,0,U,50477,999,21988,-.38609E-3,-.139E-5,0
ONEWEB-0398,2021-132K,2026-06-03T15:07:38.219808,13.11417062,.0001788,87.8902,23.7554,97.3273,262.8058,0,U,50478,999,21383,.14311E-2,.52E-5,0
ONEWEB-0399,2021-132L,2026-06-03T23:57:26.650368,13.11418601,.0002309,87.8908,23.6924,79.7827,280.3561,0,U,50479,999,21387,.13151E-2,.479E-5,0
ONEWEB-0400,2021-132M,2026-06-04T00:48:44.921664,13.18684424,.0001807,87.9166,338.0618,95.7975,264.3363,0,U,50480,999,21987,-.6169E-4,-.11E-6,0
ONEWEB-0401,2021-132N,2026-06-04T00:05:02.361984,13.18688571,.000179,87.9160,338.0637,98.0099,262.1236,0,U,50481,999,21987,.49734E-4,.33E-6,0
ONEWEB-0402,2021-132P,2026-06-04T01:00:54.552384,13.18688352,.0001768,87.9167,338.0466,72.9285,287.2041,0,U,50482,999,21990,-.65244E-4,-.13E-6,0
ONEWEB-0403,2021-132Q,2026-06-04T01:37:18.213024,13.18688113,.0001973,87.9164,338.0651,95.6329,264.5028,0,U,50483,999,21986,.1921E-3,.89E-6,0
ONEWEB-0404,2021-132R,2026-06-04T01:20:26.596032,13.11417521,.0002104,87.8902,23.6805,89.0586,271.0783,0,U,50484,999,21397,-.11106E-2,-.381E-5,0
ONEWEB-0405,2021-132S,2026-06-04T00:07:29.533152,13.18685745,.0001734,87.9169,338.0625,104.2848,255.8477,0,U,50485,999,22025,.46522E-4,.31E-6,0
ONEWEB-0406,2021-132T,2026-06-03T23:55:19.637184,13.18687952,.0002148,87.9184,338.0857,88.8441,271.2937,0,U,50486,999,21988,-.60328E-3,-.225E-5,0
ONEWEB-0407,2021-132U,2026-06-04T01:34:53.391936,13.18686251,.0001616,87.9168,338.0593,86.6598,273.4719,0,U,50487,999,21983,-.63931E-4,-.12E-6,0
ONEWEB-0409,2021-132V,2026-06-03T14:18:47.774592,13.11418567,.00021027,87.8904,23.7586,81.3153,278.8213,0,U,50488,999,21380,-.11861558E-2,-.408E-5,0
ONEWEB-0412,2021-132W,2026-06-04T01:17:52.692576,13.18688583,.0001786,87.9167,338.0704,78.5594,281.5739,0,U,50489,999,21992,-.14635E-4,.7E-7,0
ONEWEB-0413,2021-132X,2026-06-04T01:25:08.725728,13.18680665,.0001563,87.9150,338.0689,86.4138,273.7173,0,U,50490,999,21986,.48207E-3,.203E-5,0
ONEWEB-0414,2021-132Y,2026-06-04T01:03:18.971712,13.18684553,.0001919,87.9166,338.0523,84.9187,275.2164,0,U,50491,999,21989,-.20093E-4,.5E-7,0
ONEWEB-0417,2021-132Z,2026-06-04T01:15:27.290016,13.18684625,.0002052,87.9158,338.0717,93.3886,266.7481,0,U,50492,999,21987,.33255E-4,.26E-6,0
ONEWEB-0418,2021-132AA,2026-06-04T01:29:50.440704,13.18686110,.0002212,87.9161,338.0675,98.7097,261.4286,0,U,50493,999,21993,-.15177E-4,.7E-7,0
ONEWEB-0419,2021-132AB,2026-06-04T00:07:03.593280,13.18665998,.0001999,87.9174,338.0818,111.0199,249.1147,0,U,50494,999,21984,.28433E-3,.125E-5,0
ONEWEB-0420,2021-132AC,2026-06-04T01:05:44.613600,13.18684534,.0001641,87.9157,338.0751,92.5636,267.5684,0,U,50495,999,21984,-.5934E-4,-.1E-6,0
ONEWEB-0421,2021-132AD,2026-06-04T00:56:01.721184,13.18695990,.0002255,87.9168,338.0705,84.4536,275.6854,0,U,50496,999,21988,.43246E-3,.183E-5,0
ONEWEB-0424,2021-132AE,2026-06-04T00:00:11.294208,13.18688976,.0001777,87.9177,338.0804,101.9933,258.1398,0,U,50497,999,21990,.12478E-3,.62E-6,0
ONEWEB-0426,2021-132AF,2026-06-04T00:49:59.274048,13.18687861,.0002505,87.9166,338.0631,83.4681,276.6736,0,U,50498,999,21985,-.41545E-4,-.3E-7,0
ONEWEB-0427,2021-132AG,2026-06-03T13:02:11.215104,13.18688125,.00020817,87.9167,338.1493,91.7524,268.3847,0,U,50499,999,21981,.26495755E-3,.117E-5,0
ONEWEB-0429,2021-132AH,2026-06-04T01:27:35.935776,13.18685063,.0001734,87.9154,338.0716,94.2239,265.9091,0,U,50500,999,21985,.16491E-3,.78E-6,0
ONEWEB-0430,2021-132AJ,2026-06-04T01:10:36.160896,13.18685613,.0001604,87.9158,338.0725,96.4261,263.7053,0,U,50501,999,21989,.22876E-3,.103E-5,0
ONEWEB-0432,2021-132AK,2026-06-04T00:08:37.537728,13.18683130,.0001575,87.9181,338.0556,101.8009,258.3300,0,U,50502,999,21984,.18223E-3,.85E-6,0
ONEWEB-0440,2021-132AL,2026-06-04T01:39:43.827264,13.18686994,.0001579,87.9164,338.0634,81.7730,278.3581,0,U,50503,999,21984,-.29138E-3,-.102E-5,0
ONEWEB-0450,2021-132AM,2026-06-04T01:30:14.220576,13.18687690,.0001621,87.9153,338.0713,93.4740,266.6577,0,U,50504,999,21987,.15727E-3,.75E-6,0
ONEWEB-0410,2022-012A,2026-06-04T00:06:18.158112,13.17647466,.0003184,87.9153,8.4787,86.7474,273.4022,0,U,51622,999,21196,.31972E-5,.14E-6,0
